{"type": "FeatureCollection", "features": [ {"type": "Feature", "properties": {"norad_id": 32289, "name": "YAOGAN-3", "group": "resource", "lat": 21.49722723234746, "lon": -153.03978713788996, "alt_km": 597.9159166616801, "timestamp": "2025-12-23T07:45:09.053227+00:00", "meta": {"OBJECT_NAME": "YAOGAN-3", "OBJECT_ID": "2007-055A", "EPOCH": "2025-12-22T22:59:08.793888", "MEAN_MOTION": 14.89902608, "ECCENTRICITY": 0.00011433, "INCLINATION": 97.8348, "RA_OF_ASC_NODE": 23.4895, "ARG_OF_PERICENTER": 83.1705, "MEAN_ANOMALY": 276.9643, "EPHEMERIS_TYPE": 0, "CLASSIFICATION_TYPE": "U", "NORAD_CAT_ID": 32289, "ELEMENT_SET_NO": 999, "REV_AT_EPOCH": 97961, "BSTAR": 0.000269944, "MEAN_MOTION_DOT": 2.541e-05, "MEAN_MOTION_DDOT": 0}, "tle": {"line1": "1 32289U 07055A   25356.95774067  .00002541  00000+0  26994-3 0  9991", "line2": "2 32289  97.8348  23.4895 0001143  83.1705 276.9643 14.89902608979615"}}, "geometry": {"type": "Point", "coordinates": [-153.03978713788996, 21.49722723234746]}}, {"type": "Feature", "properties": {"norad_id": 32376, "name": "COSMO-SKYMED 2", "group": "resource", "lat": 36.31219564705283, "lon": 4.329572529866647, "alt_km": 619.583875980551, "timestamp": "2025-12-23T07:45:09.053237+00:00", "meta": {"OBJECT_NAME": "COSMO-SKYMED 2", "OBJECT_ID": "2007-059A", "EPOCH": "2025-12-22T23:00:26.825184", "MEAN_MOTION": 14.82154722, "ECCENTRICITY": 0.00013183, "INCLINATION": 97.8805, "RA_OF_ASC_NODE": 178.1286, "ARG_OF_PERICENTER": 82.8014, "MEAN_ANOMALY": 277.335, "EPHEMERIS_TYPE": 0, "CLASSIFICATION_TYPE": "U", "NORAD_CAT_ID": 32376, "ELEMENT_SET_NO": 999, "REV_AT_EPOCH": 97589, "BSTAR": 7.3893972e-05, "MEAN_MOTION_DOT": 5.36e-06, "MEAN_MOTION_DDOT": 0}, "tle": {"line1": "1 32376U 07059A   25356.95864381  .00000536  00000+0  73894-4 0  9995", "line2": "2 32376  97.8805 178.1286 0001318  82.8014 277.3350 14.82154722975890"}}, "geometry": {"type": "Point", "coordinates": [4.329572529866647, 36.31219564705283]}}, {"type": "Feature", "properties": {"norad_id": 32382, "name": "RADARSAT-2", "group": "resource", "lat": -81.14359237658272, "lon": 106.1017646676077, "alt_km": 799.9134742400283, "timestamp": "2025-12-23T07:45:09.053247+00:00", "meta": {"OBJECT_NAME": "RADARSAT-2", "OBJECT_ID": "2007-061A", "EPOCH": "2025-12-22T23:47:12.016320", "MEAN_MOTION": 14.29984335, "ECCENTRICITY": 0.00011135, "INCLINATION": 98.5791, "RA_OF_ASC_NODE": 1.4318, "ARG_OF_PERICENTER": 84.8723, "MEAN_ANOMALY": 275.2586, "EPHEMERIS_TYPE": 0, "CLASSIFICATION_TYPE": "U", "NORAD_CAT_ID": 32382, "ELEMENT_SET_NO": 999, "REV_AT_EPOCH": 94077, "BSTAR": 2.2531011e-05, "MEAN_MOTION_DOT": 1.4e-07, "MEAN_MOTION_DDOT": 0}, "tle": {"line1": "1 32382U 07061A   25356.99111130  .00000014  00000+0  22531-4 0  9999", "line2": "2 32382  98.5791   1.4318 0001113  84.8723 275.2586 14.29984335940774"}}, "geometry": {"type": "Point", "coordinates": [106.1017646676077, -81.14359237658272]}}, {"type": "Feature", "properties": {"norad_id": 32783, "name": "CARTOSAT-2A", "group": "resource", "lat": 18.962135495402137, "lon": -130.48803032115944, "alt_km": 640.5788961188755, "timestamp": "2025-12-23T07:45:09.053257+00:00", "meta": {"OBJECT_NAME": "CARTOSAT-2A", "OBJECT_ID": "2008-021A", "EPOCH": "2025-12-22T22:54:31.722048", "MEAN_MOTION": 14.78947209, "ECCENTRICITY": 0.00111327, "INCLINATION": 97.7914, "RA_OF_ASC_NODE": 46.4586, "ARG_OF_PERICENTER": 331.1151, "MEAN_ANOMALY": 28.9443, "EPHEMERIS_TYPE": 0, "CLASSIFICATION_TYPE": "U", "NORAD_CAT_ID": 32783, "ELEMENT_SET_NO": 999, "REV_AT_EPOCH": 95275, "BSTAR": -9.0979684e-05, "MEAN_MOTION_DOT": -7.22e-06, "MEAN_MOTION_DDOT": 0}, "tle": {"line1": "1 32783U 08021A   25356.95453382 -.00000722  00000+0 -90980-4 0  9996", "line2": "2 32783  97.7914  46.4586 0011132 331.1151  28.9443 14.78947209952757"}}, "geometry": {"type": "Point", "coordinates": [-130.48803032115944, 18.962135495402137]}}, {"type": "Feature", "properties": {"norad_id": 33320, "name": "HUANJING 1A (HJ-1A)", "group": "resource", "lat": -15.839893365541224, "lon": 162.99277764894833, "alt_km": 636.4660846340212, "timestamp": "2025-12-23T07:45:09.053268+00:00", "meta": {"OBJECT_NAME": "HUANJING 1A (HJ-1A)", "OBJECT_ID": "2008-041A", "EPOCH": "2025-12-22T22:46:39.693792", "MEAN_MOTION": 14.83424951, "ECCENTRICITY": 0.00193716, "INCLINATION": 97.6542, "RA_OF_ASC_NODE": 344.8211, "ARG_OF_PERICENTER": 2.1192, "MEAN_ANOMALY": 358.0101, "EPHEMERIS_TYPE": 0, "CLASSIFICATION_TYPE": "U", "NORAD_CAT_ID": 33320, "ELEMENT_SET_NO": 999, "REV_AT_EPOCH": 93227, "BSTAR": 0.00018761049, "MEAN_MOTION_DOT": 1.494e-05, "MEAN_MOTION_DDOT": 0}, "tle": {"line1": "1 33320U 08041A   25356.94907053  .00001494  00000+0  18761-3 0  9995", "line2": "2 33320  97.6542 344.8211 0019371   2.1192 358.0101 14.83424951932277"}}, "geometry": {"type": "Point", "coordinates": [162.99277764894833, -15.839893365541224]}}, {"type": "Feature", "properties": {"norad_id": 33321, "name": "HUANJING 1B (HJ-1B)", "group": "resource", "lat": 34.590049127288445, "lon": -16.462317976393603, "alt_km": 591.8307947852036, "timestamp": "2025-12-23T07:45:09.053278+00:00", "meta": {"OBJECT_NAME": "HUANJING 1B (HJ-1B)", "OBJECT_ID": "2008-041B", "EPOCH": "2025-12-22T23:29:56.378400", "MEAN_MOTION": 14.82844247, "ECCENTRICITY": 0.0037865, "INCLINATION": 97.6399, "RA_OF_ASC_NODE": 348.5201, "ARG_OF_PERICENTER": 43.2937, "MEAN_ANOMALY": 317.1241, "EPHEMERIS_TYPE": 0, "CLASSIFICATION_TYPE": "U", "NORAD_CAT_ID": 33321, "ELEMENT_SET_NO": 999, "REV_AT_EPOCH": 93229, "BSTAR": 7.5562688e-05, "MEAN_MOTION_DOT": 5.67e-06, "MEAN_MOTION_DDOT": 0}, "tle": {"line1": "1 33321U 08041B   25356.97912475  .00000567  00000+0  75563-4 0  9997", "line2": "2 33321  97.6399 348.5201 0037865  43.2937 317.1241 14.82844247932295"}}, "geometry": {"type": "Point", "coordinates": [-16.462317976393603, 34.590049127288445]}}, {"type": "Feature", "properties": {"norad_id": 33331, "name": "GEOEYE 1", "group": "resource", "lat": 52.13658046310518, "lon": 57.882719148273885, "alt_km": 675.1754833361383, "timestamp": "2025-12-23T07:45:09.053289+00:00", "meta": {"OBJECT_NAME": "GEOEYE 1", "OBJECT_ID": "2008-042A", "EPOCH": "2025-12-22T21:40:28.633152", "MEAN_MOTION": 14.64713402, "ECCENTRICITY": 0.00029027, "INCLINATION": 98.1239, "RA_OF_ASC_NODE": 68.0553, "ARG_OF_PERICENTER": 240.584, "MEAN_ANOMALY": 119.5074, "EPHEMERIS_TYPE": 0, "CLASSIFICATION_TYPE": "U", "NORAD_CAT_ID": 33331, "ELEMENT_SET_NO": 999, "REV_AT_EPOCH": 92434, "BSTAR": 0.00011695162, "MEAN_MOTION_DOT": 5.75e-06, "MEAN_MOTION_DDOT": 0}, "tle": {"line1": "1 33331U 08042A   25356.90310918  .00000575  00000+0  11695-3 0  9990", "line2": "2 33331  98.1239  68.0553 0002902 240.5840 119.5074 14.64713402924341"}}, "geometry": {"type": "Point", "coordinates": [57.882719148273885, 52.13658046310518]}}, {"type": "Feature", "properties": {"norad_id": 33396, "name": "THEOS", "group": "resource", "lat": 11.653163101268074, "lon": 53.31453045025448, "alt_km": 826.1632997971801, "timestamp": "2025-12-23T07:45:09.053299+00:00", "meta": {"OBJECT_NAME": "THEOS", "OBJECT_ID": "2008-049A", "EPOCH": "2025-12-22T23:14:32.148960", "MEAN_MOTION": 14.20097177, "ECCENTRICITY": 0.00012201, "INCLINATION": 98.5853, "RA_OF_ASC_NODE": 54.7559, "ARG_OF_PERICENTER": 93.4739, "MEAN_ANOMALY": 266.6578, "EPHEMERIS_TYPE": 0, "CLASSIFICATION_TYPE": "U", "NORAD_CAT_ID": 33396, "ELEMENT_SET_NO": 999, "REV_AT_EPOCH": 89295, "BSTAR": -0.0001241976, "MEAN_MOTION_DOT": -3.07e-06, "MEAN_MOTION_DDOT": 0}, "tle": {"line1": "1 33396U 08049A   25356.96842765 -.00000307  00000+0 -12420-3 0  9996", "line2": "2 33396  98.5853  54.7559 0001220  93.4739 266.6578 14.20097177892950"}}, "geometry": {"type": "Point", "coordinates": [53.31453045025448, 11.653163101268074]}}, {"type": "Feature", "properties": {"norad_id": 33412, "name": "COSMO-SKYMED 3", "group": "resource", "lat": 73.8314095611739, "lon": 56.292729786251854, "alt_km": 533.1023023026164, "timestamp": "2025-12-23T07:45:09.053310+00:00", "meta": {"OBJECT_NAME": "COSMO-SKYMED 3", "OBJECT_ID": "2008-054A", "EPOCH": "2025-12-22T21:43:13.480896", "MEAN_MOTION": 15.054433, "ECCENTRICITY": 0.00171078, "INCLINATION": 97.8459, "RA_OF_ASC_NODE": 207.4689, "ARG_OF_PERICENTER": 138.3449, "MEAN_ANOMALY": 221.9083, "EPHEMERIS_TYPE": 0, "CLASSIFICATION_TYPE": "U", "NORAD_CAT_ID": 33412, "ELEMENT_SET_NO": 999, "REV_AT_EPOCH": 93040, "BSTAR": 0.00041571095, "MEAN_MOTION_DOT": 5.925e-05, "MEAN_MOTION_DDOT": 0}, "tle": {"line1": "1 33412U 08054A   25356.90501714  .00005925  00000+0  41571-3 0  9999", "line2": "2 33412  97.8459 207.4689 0017107 138.3449 221.9083 15.05443300930407"}}, "geometry": {"type": "Point", "coordinates": [56.292729786251854, 73.8314095611739]}}, {"type": "Feature", "properties": {"norad_id": 33446, "name": "YAOGAN-4", "group": "resource", "lat": -57.39690431642518, "lon": -60.11042508370562, "alt_km": 619.0876693474693, "timestamp": "2025-12-23T07:45:09.053320+00:00", "meta": {"OBJECT_NAME": "YAOGAN-4", "OBJECT_ID": "2008-061A", "EPOCH": "2025-12-22T17:26:15.520992", "MEAN_MOTION": 14.82709792, "ECCENTRICITY": 0.00130474, "INCLINATION": 97.9196, "RA_OF_ASC_NODE": 286.7284, "ARG_OF_PERICENTER": 287.9975, "MEAN_ANOMALY": 71.9816, "EPHEMERIS_TYPE": 0, "CLASSIFICATION_TYPE": "U", "NORAD_CAT_ID": 33446, "ELEMENT_SET_NO": 999, "REV_AT_EPOCH": 91951, "BSTAR": 0.00015592238, "MEAN_MOTION_DOT": 1.206e-05, "MEAN_MOTION_DDOT": 0}, "tle": {"line1": "1 33446U 08061A   25356.72656853  .00001206  00000+0  15592-3 0  9991", "line2": "2 33446  97.9196 286.7284 0013047 287.9975  71.9816 14.82709792919518"}}, "geometry": {"type": "Point", "coordinates": [-60.11042508370562, -57.39690431642518]}}]}